H1 CPF  1  DLR 2021 08 27 10  7392 technosat            
H2  1704205 6203    42829 2021 08 27 00 00 00 2021 09 03 00 00 00    60 1 1  0 0 0
H9
10 0 59454  50400.000000  0       1126808.948      -6883817.773        -52521.439
10 0 59454  50460.000000  0       1036837.130      -6886771.842        397065.969
10 0 59454  50520.000000  0        942602.373      -6859909.107        844968.487
10 0 59454  50580.000000  0        844762.475      -6803311.034       1289285.849
10 0 59454  50640.000000  0        743989.215      -6717191.409       1728133.588
10 0 59454  50700.000000  0        640964.333      -6601895.394       2159651.294
10 0 59454  50760.000000  0        536375.455      -6457897.944       2582010.721
10 0 59454  50820.000000  0        430911.984      -6285801.527       2993423.702
10 0 59454  50880.000000  0        325261.027      -6086333.302       3392149.780
10 0 59454  50940.000000  0        220103.353      -5860341.735       3776503.586
10 0 59454  51000.000000  0        116109.455      -5608792.726       4144861.935
10 0 59454  51060.000000  0         13935.711      -5332765.183       4495670.691
10 0 59454  51120.000000  0        -85779.386      -5033446.039       4827451.271
10 0 59454  51180.000000  0       -182418.829      -4712124.811       5138806.699
10 0 59454  51240.000000  0       -275390.522      -4370187.800       5428427.331
10 0 59454  51300.000000  0       -364130.561      -4009111.846       5695096.238
10 0 59454  51360.000000  0       -448106.332      -3630457.642       5937694.117
10 0 59454  51420.000000  0       -526819.398      -3235862.736       6155203.689
10 0 59454  51480.000000  0       -599808.178      -2827034.288       6346713.622
10 0 59454  51540.000000  0       -666650.407      -2405741.657       6511422.032
10 0 59454  51600.000000  0       -726965.354      -1973808.748       6648639.602
10 0 59454  51660.000000  0       -780415.800      -1533106.148       6757792.280
10 0 59454  51720.000000  0       -826709.780      -1085543.053       6838423.533
10 0 59454  51780.000000  0       -865602.084       -633059.033       6890196.128
10 0 59454  51840.000000  0       -896895.499       -177615.697       6912893.401
10 0 59454  51900.000000  0       -920441.757        278811.696       6906420.095
10 0 59454  51960.000000  0       -936142.205        734242.705       6870802.739
10 0 59454  52020.000000  0       -943948.206       1186700.200       6806189.535
10 0 59454  52080.000000  0       -943861.263       1634218.810       6712849.798
10 0 59454  52140.000000  0       -935932.881       2074853.376       6591172.953
10 0 59454  52200.000000  0       -920264.158       2506687.315       6441667.032
10 0 59454  52260.000000  0       -897005.113       2927840.884       6264956.777
10 0 59454  52320.000000  0       -866353.757       3336479.395       6061781.261
10 0 59454  52380.000000  0       -828554.880       3730821.235       5832990.977
10 0 59454  52440.000000  0       -783898.559       4109145.658       5579544.535
10 0 59454  52500.000000  0       -732718.423       4469800.392       5302504.948
10 0 59454  52560.000000  0       -675389.720       4811209.065       5003035.486
10 0 59454  52620.000000  0       -612327.101       5131878.385       4682395.010
10 0 59454  52680.000000  0       -543982.146       5430404.924       4341932.775
10 0 59454  52740.000000  0       -470840.658       5705481.359       3983082.908
10 0 59454  52800.000000  0       -393419.816       5955902.421       3607358.728
10 0 59454  52860.000000  0       -312265.182       6180570.683       3216346.641
10 0 59454  52920.000000  0       -227947.488       6378501.969       2811699.406
10 0 59454  52980.000000  0       -141059.189       6548829.986       2395128.898
10 0 59454  53040.000000  0        -52210.842       6690810.254       1968398.842
10 0 59454  53100.000000  0         37972.566       6803823.687       1533317.308
10 0 59454  53160.000000  0        128855.401       6887379.541       1091728.889
10 0 59454  53220.000000  0        219795.241       6941117.768        645506.747
10 0 59454  53280.000000  0        310146.800       6964810.790        196544.467
10 0 59454  53340.000000  0        399265.909       6958364.615       -253252.252
10 0 59454  53400.000000  0        486513.468       6921819.210       -701973.981
10 0 59454  53460.000000  0        571259.329       6855348.247      -1147715.905
10 0 59454  53520.000000  0        652886.129       6759258.217      -1588586.143
10 0 59454  53580.000000  0        730793.055       6633986.927      -2022713.997
10 0 59454  53640.000000  0        804399.536       6480101.354      -2448258.099
10 0 59454  53700.000000  0        873148.824       6298294.889      -2863414.393
10 0 59454  53760.000000  0        936511.449       6089383.989      -3266423.947
10 0 59454  53820.000000  0        993988.508       5854304.233      -3655580.526
10 0 59454  53880.000000  0       1045114.781       5594105.832      -4029237.895
10 0 59454  53940.000000  0       1089461.650       5309948.607      -4385816.810
10 0 59454  54000.000000  0       1126639.818       5003096.480      -4723811.666
10 0 59454  54060.000000  0       1156301.801       4674911.516      -5041796.754
10 0 59454  54120.000000  0       1178144.171       4326847.575      -5338432.128
10 0 59454  54180.000000  0       1191909.546       3960443.627      -5612469.092
10 0 59454  54240.000000  0       1197388.312       3577316.699      -5862755.319
10 0 59454  54300.000000  0       1194420.108       3179154.469      -6088239.486
10 0 59454  54360.000000  0       1182895.013       2767707.625      -6287975.403
10 0 59454  54420.000000  0       1162754.458       2344782.040      -6461125.687
10 0 59454  54480.000000  0       1133991.879       1912230.824      -6606965.003
10 0 59454  54540.000000  0       1096653.089       1471946.217      -6724882.941
10 0 59454  54600.000000  0       1050836.345       1025851.238      -6814386.398
10 0 59454  54660.000000  0        996692.164        575891.344      -6875101.412
10 0 59454  54720.000000  0        934422.864        124025.999      -6906774.618
10 0 59454  54780.000000  0        864281.792       -327779.839      -6909274.188
10 0 59454  54840.000000  0        786572.261       -777564.155      -6882590.235
10 0 59454  54900.000000  0        701646.266      -1223376.246      -6826834.815
10 0 59454  54960.000000  0        609902.929      -1663285.042      -6742241.458
10 0 59454  55020.000000  0        511786.696      -2095387.280      -6629164.298
10 0 59454  55080.000000  0        407785.273      -2517815.675      -6488076.881
10 0 59454  55140.000000  0        298427.242      -2928747.081      -6319570.370
10 0 59454  55200.000000  0        184279.463      -3326410.388      -6124351.172
10 0 59454  55260.000000  0         65944.286      -3709094.149      -5903238.157
10 0 59454  55320.000000  0        -55943.442      -4075154.001      -5657159.469
10 0 59454  55380.000000  0       -180719.601      -4423019.857      -5387148.901
10 0 59454  55440.000000  0       -307694.231      -4751202.823      -5094341.795
10 0 59454  55500.000000  0       -436155.149      -5058301.781      -4779970.498
10 0 59454  55560.000000  0       -565371.732      -5343009.639      -4445359.386
10 0 59454  55620.000000  0       -694598.846      -5604119.174      -4091919.441
10 0 59454  55680.000000  0       -823080.893      -5840528.445      -3721142.434
10 0 59454  55740.000000  0       -950055.966      -6051245.736      -3334594.717
10 0 59454  55800.000000  0      -1074760.079      -6235394.013      -2933910.684
10 0 59454  55860.000000  0      -1196431.472      -6392214.906      -2520785.896
10 0 59454  55920.000000  0      -1314314.950      -6521072.173      -2096969.854
10 0 59454  55980.000000  0      -1427666.210      -6621454.544      -1664258.466
10 0 59454  56040.000000  0      -1535756.150      -6692977.978      -1224486.301
10 0 59454  56100.000000  0      -1637875.137      -6735387.316       -779518.620
10 0 59454  56160.000000  0      -1733337.195      -6748557.289       -331243.252
10 0 59454  56220.000000  0      -1821484.112      -6732492.913        118437.630
10 0 59454  56280.000000  0      -1901689.417      -6687329.244        567615.827
10 0 59454  56340.000000  0      -1973362.212      -6613330.500       1014385.457
10 0 59454  56400.000000  0      -2035950.829      -6510888.548       1456851.294
10 0 59454  56460.000000  0      -2088946.276      -6380520.783       1893137.041
10 0 59454  56520.000000  0      -2131885.477      -6222867.387       2321393.517
10 0 59454  56580.000000  0      -2164354.247      -6038687.984       2739806.676
10 0 59454  56640.000000  0      -2185990.018      -5828857.750       3146605.422
10 0 59454  56700.000000  0      -2196484.287      -5594362.995       3540069.192
10 0 59454  56760.000000  0      -2195584.789      -5336296.249       3918535.266
10 0 59454  56820.000000  0      -2183097.350      -5055850.894       4280405.776
10 0 59454  56880.000000  0      -2158887.480      -4754315.386       4624154.370
10 0 59454  56940.000000  0      -2122881.654      -4433067.112       4948332.574
10 0 59454  57000.000000  0      -2075068.302      -4093565.831       5251575.824
10 0 59454  57060.000000  0      -2015498.436      -3737346.730       5532609.061
10 0 59454  57120.000000  0      -1944285.945      -3366013.232       5790251.828
10 0 59454  57180.000000  0      -1861607.560      -2981229.630       6023422.971
10 0 59454  57240.000000  0      -1767702.507      -2584713.509       6231144.897
10 0 59454  57300.000000  0      -1662871.855      -2178228.046       6412547.402
10 0 59454  57360.000000  0      -1547477.578      -1763574.160       6566871.122
10 0 59454  57420.000000  0      -1421941.315      -1342582.472       6693470.497
10 0 59454  57480.000000  0      -1286742.839       -917105.201       6791816.201
10 0 59454  57540.000000  0      -1142418.264       -489008.085       6861497.099
99
